ONEWEB-0349             
1 49281U 21090C   25178.45870639 -.00000061  00000+0 -18288-3 0  9999
2 49281  87.9265 345.1037 0001948  91.9177 268.2179 13.20772849183002
ONEWEB-0353             
1 49282U 21090D   25178.19735792  .00000204  00000+0  51519-3 0  9992
2 49282  87.9032   0.3337 0001919  98.3999 261.7348 13.14502146180949
ONEWEB-0356             
1 49283U 21090E   25178.00257422 -.00000005  00000+0 -45284-4 0  9996
2 49283  87.9265 345.1854 0000981 107.6312 252.4928 13.20773680182946
ONEWEB-0358             
1 49284U 21090F   25178.41137314  .00000037  00000+0  58899-4 0  9998
2 49284  87.9266 345.0942 0001707  90.0859 270.0470 13.20772224183721
ONEWEB-0359             
1 49285U 21090G   25178.18095254  .00000049  00000+0  88994-4 0  9991
2 49285  87.9262 345.1521 0001784  81.8014 278.3322 13.20771945184950
ONEWEB-0360             
1 49286U 21090H   25178.39872914  .00000044  00000+0  76822-4 0  9993
2 49286  87.9265 345.1148 0001789  87.9701 272.1637 13.20772664183010
ONEWEB-0361             
1 49287U 21090J   25178.45554811 -.00000048  00000+0 -14936-3 0  9997
2 49287  87.9265 345.0989 0001687  95.0944 265.0382 13.20772944183478
ONEWEB-0362             
1 49288U 21090K   25178.27881958  .00000044  00000+0  77472-4 0  9992
2 49288  87.9213  15.5436 0002012  85.9683 274.1679 13.19725439180101
